{
  "links" : {
    "next" : "https://api.nasa.gov/neo/rest/v1/feed?start_date=1998-05-23&end_date=1998-05-23&detailed=true&api_key=t0TVs3DtDT2H8Oy2Zy8m2eVrNsAVKAexjcZXUckd",
    "prev" : "https://api.nasa.gov/neo/rest/v1/feed?start_date=1998-05-21&end_date=1998-05-21&detailed=true&api_key=t0TVs3DtDT2H8Oy2Zy8m2eVrNsAVKAexjcZXUckd",
    "self" : "https://api.nasa.gov/neo/rest/v1/feed?start_date=1998-05-22&end_date=1998-05-22&detailed=true&api_key=t0TVs3DtDT2H8Oy2Zy8m2eVrNsAVKAexjcZXUckd"
  },
  "element_count" : 7,
  "near_earth_objects" : {
    "1998-05-22" : [ {
      "links" : {
        "self" : "https://api.nasa.gov/neo/rest/v1/neo/3763945?api_key=t0TVs3DtDT2H8Oy2Zy8m2eVrNsAVKAexjcZXUckd"
      },
      "neo_reference_id" : "3763945",
      "name" : "(2016 WU)",
      "nasa_jpl_url" : "http://ssd.jpl.nasa.gov/sbdb.cgi?sstr=3763945",
      "absolute_magnitude_h" : 27.3,
      "estimated_diameter" : {
        "kilometers" : {
          "estimated_diameter_min" : 0.0092162655,
          "estimated_diameter_max" : 0.0206081961
        },
        "meters" : {
          "estimated_diameter_min" : 9.216265485,
          "estimated_diameter_max" : 20.6081961232
        },
        "miles" : {
          "estimated_diameter_min" : 0.0057267201,
          "estimated_diameter_max" : 0.0128053354
        },
        "feet" : {
          "estimated_diameter_min" : 30.2370924539,
          "estimated_diameter_max" : 67.6121941689
        }
      },
      "is_potentially_hazardous_asteroid" : false,
      "close_approach_data" : [ {
        "close_approach_date" : "1998-05-22",
        "epoch_date_close_approach" : 895820400000,
        "relative_velocity" : {
          "kilometers_per_second" : "4.778250365",
          "kilometers_per_hour" : "17201.701313982",
          "miles_per_hour" : "10688.4682414573"
        },
        "miss_distance" : {
          "astronomical" : "0.1153297346",
          "lunar" : "44.8632659912",
          "kilometers" : "17253082",
          "miles" : "10720569"
        },
        "orbiting_body" : "Earth"
      } ],
      "orbital_data" : {
        "orbit_id" : "8",
        "orbit_determination_date" : "2017-04-06 08:22:07",
        "orbit_uncertainty" : "6",
        "minimum_orbit_intersection" : ".00219311",
        "jupiter_tisserand_invariant" : "5.891",
        "epoch_osculation" : "2458000.5",
        "eccentricity" : ".1746445944349754",
        "semi_major_axis" : "1.036264628856051",
        "inclination" : "8.41056029335553",
        "ascending_node_longitude" : "54.6833833161865",
        "orbital_period" : "385.3048170993658",
        "perihelion_distance" : ".8552866130221755",
        "perihelion_argument" : "272.9185642980249",
        "aphelion_distance" : "1.217242644689926",
        "perihelion_time" : "2458022.448077991957",
        "mean_anomaly" : "339.4933576574859",
        "mean_motion" : ".9343251992283296",
        "equinox" : "J2000"
      }
    } ]
  }
}